OKEAN-3                 
1 21397U 91039A   25299.50787086  .00003704  00000+0  26804-3 0  9998
2 21397  82.5144 106.7475 0015742  69.8177 290.4740 15.03645288844863
COSMOS 2151             
1 21422U 91042A   25299.51325918  .00003155  00000+0  25504-3 0  9990
2 21422  82.4992 212.9962 0013275 145.4807 214.7282 14.99428860843085
SL-14 R/B               
1 21423U 91042B   25299.51004477  .00000542  00000+0  65849-4 0  9999
2 21423  82.4944 346.0159 0016133 326.4724  33.5467 14.81676921833204
ERS-1                   
1 21574U 91050A   25299.46577611  .00000484  00000+0  16984-3 0  9994
2 21574  98.7934 309.3308 0031077 239.5668 120.2448 14.39310547796420
ARIANE 40 R/B           
1 21610U 91050F   25299.41979541  .00000495  00000+0  16122-3 0  9994
2 21610  98.2234 351.5424 0004270 114.3490 245.8147 14.42753130799634
INTERCOSMOS 25          
1 21819U 91086A   25299.24308853  .00001241  00000+0  23780-3 0  9995
2 21819  82.6090  31.2747 1489022  46.7315 324.8705 12.11534599480409
SL-8 R/B                
1 21876U 92008B   25299.26712147  .00000114  00000+0  10127-3 0  9999
2 21876  82.9307   7.7522 0035538 148.3791 272.2775 13.75945407690939
SL-8 R/B                
1 21938U 92020B   25299.50119139  .00000065  00000+0  51543-4 0  9994
2 21938  82.9288 253.3960 0028065 314.7486 177.4409 13.75519187682683
USA 81                  
1 21949U 92023A   25299.45914324  .00000292  00000+0  10090-3 0  9995
2 21949  85.0117 208.8342 0002767  91.6384 268.5126 14.32301003 75570
COSMOS 2219             
1 22219U 92076A   25299.40000345  .00000401  00000+0  23500-3 0  9990
2 22219  71.0588 298.7900 0016618  40.5803 319.6555 14.14052527699395
SL-16 R/B               
1 22220U 92076B   25299.48643208 -.00000131  00000+0 -41445-4 0  9992
2 22220  70.9974 111.0668 0014928 295.3364 132.1650 14.16828823702825
COSMOS 2221             
1 22236U 92080A   25299.38321911  .00003263  00000+0  29227-3 0  9997
2 22236  82.5062  47.6321 0013231 284.9708  75.0048 14.95474163760710
