CCSDS_OMM_VERS = 2.0
CREATION_DATE  = 
ORIGINATOR     = 

OBJECT_NAME    = OKEAN-3
OBJECT_ID      = 1991-039A
CENTER_NAME    = EARTH
REF_FRAME      = TEME
TIME_SYSTEM    = UTC
MEAN_ELEMENT_THEORY = SGP/SGP4

EPOCH          = 2025-10-26T12:11:20.042304
MEAN_MOTION    = 15.03645288
ECCENTRICITY   = .0015742
INCLINATION    = 82.5144
RA_OF_ASC_NODE = 106.7475
ARG_OF_PERICENTER = 69.8177
MEAN_ANOMALY   = 290.4740

EPHEMERIS_TYPE = 0
CLASSIFICATION_TYPE = U
NORAD_CAT_ID   = 21397
ELEMENT_SET_NO = 999
REV_AT_EPOCH   = 84486
BSTAR          = .26804E-3
MEAN_MOTION_DOT = .3704E-4
MEAN_MOTION_DDOT = 0

CCSDS_OMM_VERS = 2.0
CREATION_DATE  = 
ORIGINATOR     = 

OBJECT_NAME    = COSMOS 2151
OBJECT_ID      = 1991-042A
CENTER_NAME    = EARTH
REF_FRAME      = TEME
TIME_SYSTEM    = UTC
MEAN_ELEMENT_THEORY = SGP/SGP4

EPOCH          = 2025-10-26T12:19:05.593152
MEAN_MOTION    = 14.99428860
ECCENTRICITY   = .0013275
INCLINATION    = 82.4992
RA_OF_ASC_NODE = 212.9962
ARG_OF_PERICENTER = 145.4807
MEAN_ANOMALY   = 214.7282

EPHEMERIS_TYPE = 0
CLASSIFICATION_TYPE = U
NORAD_CAT_ID   = 21422
ELEMENT_SET_NO = 999
REV_AT_EPOCH   = 84308
BSTAR          = .25504E-3
MEAN_MOTION_DOT = .3155E-4
MEAN_MOTION_DDOT = 0

CCSDS_OMM_VERS = 2.0
CREATION_DATE  = 
ORIGINATOR     = 

OBJECT_NAME    = SL-14 R/B
OBJECT_ID      = 1991-042B
CENTER_NAME    = EARTH
REF_FRAME      = TEME
TIME_SYSTEM    = UTC
MEAN_ELEMENT_THEORY = SGP/SGP4

EPOCH          = 2025-10-26T12:14:27.868128
MEAN_MOTION    = 14.81676921
ECCENTRICITY   = .0016133
INCLINATION    = 82.4944
RA_OF_ASC_NODE = 346.0159
ARG_OF_PERICENTER = 326.4724
MEAN_ANOMALY   = 33.5467

EPHEMERIS_TYPE = 0
CLASSIFICATION_TYPE = U
NORAD_CAT_ID   = 21423
ELEMENT_SET_NO = 999
REV_AT_EPOCH   = 83320
BSTAR          = .65849E-4
MEAN_MOTION_DOT = .542E-5
MEAN_MOTION_DDOT = 0

CCSDS_OMM_VERS = 2.0
CREATION_DATE  = 
ORIGINATOR     = 

OBJECT_NAME    = ERS-1
OBJECT_ID      = 1991-050A
CENTER_NAME    = EARTH
REF_FRAME      = TEME
TIME_SYSTEM    = UTC
MEAN_ELEMENT_THEORY = SGP/SGP4

EPOCH          = 2025-10-26T11:10:43.055904
MEAN_MOTION    = 14.39310547
ECCENTRICITY   = .0031077
INCLINATION    = 98.7934
RA_OF_ASC_NODE = 309.3308
ARG_OF_PERICENTER = 239.5668
MEAN_ANOMALY   = 120.2448

EPHEMERIS_TYPE = 0
CLASSIFICATION_TYPE = U
NORAD_CAT_ID   = 21574
ELEMENT_SET_NO = 999
REV_AT_EPOCH   = 79642
BSTAR          = .16984E-3
MEAN_MOTION_DOT = .484E-5
MEAN_MOTION_DDOT = 0

CCSDS_OMM_VERS = 2.0
CREATION_DATE  = 
ORIGINATOR     = 

OBJECT_NAME    = ARIANE 40 R/B
OBJECT_ID      = 1991-050F
CENTER_NAME    = EARTH
REF_FRAME      = TEME
TIME_SYSTEM    = UTC
MEAN_ELEMENT_THEORY = SGP/SGP4

EPOCH          = 2025-10-26T10:04:30.323424
MEAN_MOTION    = 14.42753130
ECCENTRICITY   = .000427
INCLINATION    = 98.2234
RA_OF_ASC_NODE = 351.5424
ARG_OF_PERICENTER = 114.3490
MEAN_ANOMALY   = 245.8147

EPHEMERIS_TYPE = 0
CLASSIFICATION_TYPE = U
NORAD_CAT_ID   = 21610
ELEMENT_SET_NO = 999
REV_AT_EPOCH   = 79963
BSTAR          = .16122E-3
MEAN_MOTION_DOT = .495E-5
MEAN_MOTION_DDOT = 0

CCSDS_OMM_VERS = 2.0
CREATION_DATE  = 
ORIGINATOR     = 

OBJECT_NAME    = INTERCOSMOS 25
OBJECT_ID      = 1991-086A
CENTER_NAME    = EARTH
REF_FRAME      = TEME
TIME_SYSTEM    = UTC
MEAN_ELEMENT_THEORY = SGP/SGP4

EPOCH          = 2025-10-26T05:50:02.848992
MEAN_MOTION    = 12.11534599
ECCENTRICITY   = .1489022
INCLINATION    = 82.6090
RA_OF_ASC_NODE = 31.2747
ARG_OF_PERICENTER = 46.7315
MEAN_ANOMALY   = 324.8705

EPHEMERIS_TYPE = 0
CLASSIFICATION_TYPE = U
NORAD_CAT_ID   = 21819
ELEMENT_SET_NO = 999
REV_AT_EPOCH   = 48040
BSTAR          = .2378E-3
MEAN_MOTION_DOT = .1241E-4
MEAN_MOTION_DDOT = 0

CCSDS_OMM_VERS = 2.0
CREATION_DATE  = 
ORIGINATOR     = 

OBJECT_NAME    = SL-8 R/B
OBJECT_ID      = 1992-008B
CENTER_NAME    = EARTH
REF_FRAME      = TEME
TIME_SYSTEM    = UTC
MEAN_ELEMENT_THEORY = SGP/SGP4

EPOCH          = 2025-10-26T06:24:39.295008
MEAN_MOTION    = 13.75945407
ECCENTRICITY   = .0035538
INCLINATION    = 82.9307
RA_OF_ASC_NODE = 7.7522
ARG_OF_PERICENTER = 148.3791
MEAN_ANOMALY   = 272.2775

EPHEMERIS_TYPE = 0
CLASSIFICATION_TYPE = U
NORAD_CAT_ID   = 21876
ELEMENT_SET_NO = 999
REV_AT_EPOCH   = 69093
BSTAR          = .10127E-3
MEAN_MOTION_DOT = .114E-5
MEAN_MOTION_DDOT = 0

CCSDS_OMM_VERS = 2.0
CREATION_DATE  = 
ORIGINATOR     = 

OBJECT_NAME    = SL-8 R/B
OBJECT_ID      = 1992-020B
CENTER_NAME    = EARTH
REF_FRAME      = TEME
TIME_SYSTEM    = UTC
MEAN_ELEMENT_THEORY = SGP/SGP4

EPOCH          = 2025-10-26T12:01:42.936096
MEAN_MOTION    = 13.75519187
ECCENTRICITY   = .0028065
INCLINATION    = 82.9288
RA_OF_ASC_NODE = 253.3960
ARG_OF_PERICENTER = 314.7486
MEAN_ANOMALY   = 177.4409

EPHEMERIS_TYPE = 0
CLASSIFICATION_TYPE = U
NORAD_CAT_ID   = 21938
ELEMENT_SET_NO = 999
REV_AT_EPOCH   = 68268
BSTAR          = .51543E-4
MEAN_MOTION_DOT = .65E-6
MEAN_MOTION_DDOT = 0

CCSDS_OMM_VERS = 2.0
CREATION_DATE  = 
ORIGINATOR     = 

OBJECT_NAME    = USA 81
OBJECT_ID      = 1992-023A
CENTER_NAME    = EARTH
REF_FRAME      = TEME
TIME_SYSTEM    = UTC
MEAN_ELEMENT_THEORY = SGP/SGP4

EPOCH          = 2025-10-26T11:01:09.975936
MEAN_MOTION    = 14.32301003
ECCENTRICITY   = .0002767
INCLINATION    = 85.0117
RA_OF_ASC_NODE = 208.8342
ARG_OF_PERICENTER = 91.6384
MEAN_ANOMALY   = 268.5126

EPHEMERIS_TYPE = 0
CLASSIFICATION_TYPE = U
NORAD_CAT_ID   = 21949
ELEMENT_SET_NO = 999
REV_AT_EPOCH   = 7557
BSTAR          = .1009E-3
MEAN_MOTION_DOT = .292E-5
MEAN_MOTION_DDOT = 0

CCSDS_OMM_VERS = 2.0
CREATION_DATE  = 
ORIGINATOR     = 

OBJECT_NAME    = COSMOS 2219
OBJECT_ID      = 1992-076A
CENTER_NAME    = EARTH
REF_FRAME      = TEME
TIME_SYSTEM    = UTC
MEAN_ELEMENT_THEORY = SGP/SGP4

EPOCH          = 2025-10-26T09:36:00.298080
MEAN_MOTION    = 14.14052527
ECCENTRICITY   = .0016618
INCLINATION    = 71.0588
RA_OF_ASC_NODE = 298.7900
ARG_OF_PERICENTER = 40.5803
MEAN_ANOMALY   = 319.6555

EPHEMERIS_TYPE = 0
CLASSIFICATION_TYPE = U
NORAD_CAT_ID   = 22219
ELEMENT_SET_NO = 999
REV_AT_EPOCH   = 69939
BSTAR          = .235E-3
MEAN_MOTION_DOT = .401E-5
MEAN_MOTION_DDOT = 0

CCSDS_OMM_VERS = 2.0
CREATION_DATE  = 
ORIGINATOR     = 

OBJECT_NAME    = SL-16 R/B
OBJECT_ID      = 1992-076B
CENTER_NAME    = EARTH
REF_FRAME      = TEME
TIME_SYSTEM    = UTC
MEAN_ELEMENT_THEORY = SGP/SGP4

EPOCH          = 2025-10-26T11:40:27.731712
MEAN_MOTION    = 14.16828823
ECCENTRICITY   = .0014928
INCLINATION    = 70.9974
RA_OF_ASC_NODE = 111.0668
ARG_OF_PERICENTER = 295.3364
MEAN_ANOMALY   = 132.1650

EPHEMERIS_TYPE = 0
CLASSIFICATION_TYPE = U
NORAD_CAT_ID   = 22220
ELEMENT_SET_NO = 999
REV_AT_EPOCH   = 70282
BSTAR          = -.41445E-4
MEAN_MOTION_DOT = -.131E-5
MEAN_MOTION_DDOT = 0

CCSDS_OMM_VERS = 2.0
CREATION_DATE  = 
ORIGINATOR     = 

OBJECT_NAME    = COSMOS 2221
OBJECT_ID      = 1992-080A
CENTER_NAME    = EARTH
REF_FRAME      = TEME
TIME_SYSTEM    = UTC
MEAN_ELEMENT_THEORY = SGP/SGP4

EPOCH          = 2025-10-26T09:11:50.131104
MEAN_MOTION    = 14.95474163
ECCENTRICITY   = .0013231
INCLINATION    = 82.5062
RA_OF_ASC_NODE = 47.6321
ARG_OF_PERICENTER = 284.9708
MEAN_ANOMALY   = 75.0048

EPHEMERIS_TYPE = 0
CLASSIFICATION_TYPE = U
NORAD_CAT_ID   = 22236
ELEMENT_SET_NO = 999
REV_AT_EPOCH   = 76071
BSTAR          = .29227E-3
MEAN_MOTION_DOT = .3263E-4
MEAN_MOTION_DDOT = 0

